OBJECT_NAME,OBJECT_ID,EPOCH,MEAN_MOTION,ECCENTRICITY,INCLINATION,RA_OF_ASC_NODE,ARG_OF_PERICENTER,MEAN_ANOMALY,EPHEMERIS_TYPE,CLASSIFICATION_TYPE,NORAD_CAT_ID,ELEMENT_SET_NO,REV_AT_EPOCH,BSTAR,MEAN_MOTION_DOT,MEAN_MOTION_DDOT
QIANFAN-132,2026-104F,2026-06-05T16:57:36.217152,14.18147133,.000502,88.9863,342.9296,133.8361,226.3244,0,U,69078,999,345,.52103E-4,.121E-5,0
QIANFAN-133,2026-104G,2026-06-05T16:35:08.720160,14.19028920,.0004577,88.9863,342.9271,143.7108,216.4392,0,U,69079,999,345,.51984E-4,.123E-5,0
QIANFAN-134,2026-104H,2026-06-05T16:27:15.757056,14.19324397,.0005478,88.9863,342.9263,128.4115,231.7567,0,U,69080,999,345,.51355E-4,.122E-5,0
QIANFAN-135,2026-104J,2026-06-05T16:20:23.290368,14.19621850,.0004413,88.9863,342.9258,155.4743,204.6657,0,U,69081,999,345,.4858E-4,.117E-5,0
QIANFAN-136,2026-104K,2026-06-05T16:14:35.970144,14.19914138,.0004855,88.9862,342.9249,143.9384,216.2134,0,U,69082,999,345,.46741E-4,.114E-5,0
QIANFAN-137,2026-104L,2026-06-05T16:33:52.568064,14.25196506,.0005541,88.9862,342.9081,137.2691,222.8933,0,U,69083,999,346,.47701E-4,.127E-5,0
QIANFAN-138,2026-104M,2026-06-05T17:39:18.025056,14.20801718,.0004397,88.9863,342.9151,145.5245,214.6232,0,U,69084,999,346,.48336E-4,.119E-5,0
QIANFAN-139,2026-104N,2026-06-05T17:32:27.066048,14.21102473,.0004323,88.9864,342.9144,135.9445,224.2090,0,U,69085,999,346,.5085E-4,.125E-5,0
QIANFAN-140,2026-104P,2026-06-05T17:26:03.483744,14.21392069,.0004382,88.9863,342.9137,140.5426,219.6085,0,U,69086,999,346,.47611E-4,.118E-5,0
QIANFAN-141,2026-104Q,2026-06-05T15:38:51.144576,14.21633451,.0003992,88.9863,342.9211,136.7529,223.3976,0,U,69087,999,345,.47415E-4,.118E-5,0
QIANFAN-142,2026-104R,2026-06-05T17:12:59.671584,14.21952256,.0005236,88.9863,342.9122,128.5289,231.6372,0,U,69088,999,346,.45492E-4,.115E-5,0
QIANFAN-143,2026-104S,2026-06-05T16:55:13.168128,14.23170820,.000454,88.9863,342.9103,130.4190,229.7398,0,U,69089,999,346,.45627E-4,.118E-5,0
QIANFAN-144,2026-104T,2026-06-05T17:03:15.439968,14.22581591,.0003907,88.9863,342.9112,121.8846,238.2726,0,U,69090,999,346,.46796E-4,.119E-5,0
ZHUQUE-2E R/B,2026-105A,2026-06-05T04:25:08.863104,15.13745133,.04622376,88.9715,195.9011,344.2735,14.4536,0,U,69095,999,333,.45699234E-3,.185388E-2,-.76242E-6
2026-106A,2026-106A,2026-06-04T15:09:10.862208,15.11037132,.0013466,97.5095,237.9435,203.5034,156.5582,0,U,69097,999,308,.543886E-3,.9052E-4,0
2026-106B,2026-106B,2026-06-04T15:16:55.543008,15.09575067,.00142668,97.5082,237.9319,199.5733,160.4950,0,U,69098,999,308,.42602016E-3,.6796E-4,0
2026-106C,2026-106C,2026-06-04T15:08:24.576864,15.11076088,.00135546,97.5097,237.9445,204.3760,155.6830,0,U,69099,999,308,.53277866E-3,.8876E-4,0
2026-106D,2026-106D,2026-06-04T15:05:56.171040,15.11202473,.00131226,97.5062,237.9411,207.0214,153.0334,0,U,69100,999,308,.49447297E-3,.826E-4,0
2026-106E,2026-106E,2026-06-04T15:00:25.283232,15.11460406,.0015124,97.5073,237.9468,208.9127,151.1267,0,U,69101,999,308,.54174936E-3,.9128E-4,0
DRAGON CRS-34,2026-107A,2026-06-05T15:27:38.200896,15.49619643,.0007055,51.6330,357.2373,136.8284,223.3259,0,U,69103,999,57007,.16425E-3,.8809E-4,0
QIANFAN-145,2026-108A,2026-06-05T16:22:32.911104,14.16075988,.0015491,89.0120,23.5018,149.8801,210.3281,0,U,69104,999,271,.14906E-3,.309E-5,0
QIANFAN-146,2026-108B,2026-06-05T16:35:47.937120,14.23383702,.0015796,89.0123,23.4853,148.4310,211.7833,0,U,69105,999,272,.15101E-3,.357E-5,0
QIANFAN-147,2026-108C,2026-06-05T12:41:05.576064,14.17032704,.0015464,89.0119,23.5155,147.4275,212.7870,0,U,69106,999,269,.15047E-3,.317E-5,0
QIANFAN-148,2026-108D,2026-06-05T15:56:14.396928,14.17401915,.001597,89.0120,23.4992,151.9836,208.2215,0,U,69107,999,271,.14721E-3,.313E-5,0
QIANFAN-149,2026-108E,2026-06-05T15:52:51.566880,14.17856481,.0015618,89.0122,23.4992,151.2349,208.9705,0,U,69108,999,271,.15242E-3,.326E-5,0
QIANFAN-150,2026-108F,2026-06-05T15:41:25.313280,14.18304936,.0015651,89.0123,23.4982,152.9877,207.2129,0,U,69109,999,271,.14391E-3,.311E-5,0
QIANFAN-151,2026-108G,2026-06-05T12:10:53.787936,14.18800490,.0015751,89.0122,23.5130,151.9650,208.2392,0,U,69110,999,269,.15589E-3,.339E-5,0
QIANFAN-152,2026-108H,2026-06-05T15:27:57.684960,14.19417884,.0014986,89.0121,23.4964,151.4510,208.7504,0,U,69111,999,271,.14918E-3,.328E-5,0
QIANFAN-153,2026-108J,2026-06-05T15:20:55.692672,14.19641072,.0016187,89.0118,23.4954,151.4298,208.7783,0,U,69112,999,271,.14695E-3,.325E-5,0
