QIANFAN-132             
1 69078U 26104F   26156.70666918  .00000121  00000+0  52103-4 0  9994
2 69078  88.9863 342.9296 0005020 133.8361 226.3244 14.18147133  3459
QIANFAN-133             
1 69079U 26104G   26156.69107315  .00000123  00000+0  51984-4 0  9992
2 69079  88.9863 342.9271 0004577 143.7108 216.4392 14.19028920  3455
QIANFAN-134             
1 69080U 26104H   26156.68559904  .00000122  00000+0  51355-4 0  9999
2 69080  88.9863 342.9263 0005478 128.4115 231.7567 14.19324397  3458
QIANFAN-135             
1 69081U 26104J   26156.68082512  .00000117  00000+0  48580-4 0  9996
2 69081  88.9863 342.9258 0004413 155.4743 204.6657 14.19621850  3451
QIANFAN-136             
1 69082U 26104K   26156.67680521  .00000114  00000+0  46741-4 0  9994
2 69082  88.9862 342.9249 0004855 143.9384 216.2134 14.19914138  3457
QIANFAN-137             
1 69083U 26104L   26156.69019176  .00000127  00000+0  47701-4 0  9990
2 69083  88.9862 342.9081 0005541 137.2691 222.8933 14.25196506  3461
QIANFAN-138             
1 69084U 26104M   26156.73562529  .00000119  00000+0  48336-4 0  9997
2 69084  88.9863 342.9151 0004397 145.5245 214.6232 14.20801718  3460
QIANFAN-139             
1 69085U 26104N   26156.73086882  .00000125  00000+0  50850-4 0  9992
2 69085  88.9864 342.9144 0004323 135.9445 224.2090 14.21102473  3460
QIANFAN-140             
1 69086U 26104P   26156.72642921  .00000118  00000+0  47611-4 0  9997
2 69086  88.9863 342.9137 0004382 140.5426 219.6085 14.21392069  3462
QIANFAN-141             
1 69087U 26104Q   26156.65198084  .00000118  00000+0  47415-4 0  9998
2 69087  88.9863 342.9211 0003992 136.7529 223.3976 14.21633451  3456
QIANFAN-142             
1 69088U 26104R   26156.71735731  .00000115  00000+0  45492-4 0  9992
2 69088  88.9863 342.9122 0005236 128.5289 231.6372 14.21952256  3463
QIANFAN-143             
1 69089U 26104S   26156.70501352  .00000118  00000+0  45627-4 0  9995
2 69089  88.9863 342.9103 0004540 130.4190 229.7398 14.23170820  3460
QIANFAN-144             
1 69090U 26104T   26156.71059537  .00000119  00000+0  46796-4 0  9990
2 69090  88.9863 342.9112 0003907 121.8846 238.2726 14.22581591  3460
ZHUQUE-2E R/B           
1 69095U 26105A   26156.18413036  .00185388 -76242-6  45699-3 0  9996
2 69095  88.9715 195.9011 0462237 344.2735  14.4536 15.13745133  3332
2026-106A               
1 69097U 26106A   26155.63137572  .00009052  00000+0  54389-3 0  9996
2 69097  97.5095 237.9435 0013466 203.5034 156.5582 15.11037132  3085
2026-106B               
1 69098U 26106B   26155.63675397  .00006796  00000+0  42602-3 0  9996
2 69098  97.5082 237.9319 0014266 199.5733 160.4950 15.09575067  3086
2026-106C               
1 69099U 26106C   26155.63084001  .00008876  00000+0  53278-3 0  9995
2 69099  97.5097 237.9445 0013554 204.3760 155.6830 15.11076088  3082
2026-106D               
1 69100U 26106D   26155.62912235  .00008260  00000+0  49447-3 0  9996
2 69100  97.5062 237.9411 0013122 207.0214 153.0334 15.11202473  3085
2026-106E               
1 69101U 26106E   26155.62529263  .00009128  00000+0  54175-3 0  9990
2 69101  97.5073 237.9468 0015124 208.9127 151.1267 15.11460406  3083
DRAGON CRS-34           
1 69103U 26107A   26156.64419214  .00008809  00000+0  16425-3 0  9991
2 69103  51.6330 357.2373 0007055 136.8284 223.3259 15.49619643570071
QIANFAN-145             
1 69104U 26108A   26156.68232536  .00000309  00000+0  14906-3 0  9996
2 69104  89.0120  23.5018 0015491 149.8801 210.3281 14.16075988  2718
QIANFAN-146             
1 69105U 26108B   26156.69152705  .00000357  00000+0  15101-3 0  9998
2 69105  89.0123  23.4853 0015796 148.4310 211.7833 14.23383702  2729
QIANFAN-147             
1 69106U 26108C   26156.52853676  .00000317  00000+0  15047-3 0  9991
2 69106  89.0119  23.5155 0015464 147.4275 212.7870 14.17032704  2696
QIANFAN-148             
1 69107U 26108D   26156.66405552  .00000313  00000+0  14721-3 0  9997
2 69107  89.0120  23.4992 0015970 151.9836 208.2215 14.17401915  2712
QIANFAN-149             
1 69108U 26108E   26156.66170795  .00000326  00000+0  15242-3 0  9999
2 69108  89.0122  23.4992 0015618 151.2349 208.9705 14.17856481  2719
QIANFAN-150             
1 69109U 26108F   26156.65376520  .00000311  00000+0  14391-3 0  9991
2 69109  89.0123  23.4982 0015651 152.9877 207.2129 14.18304936  2717
QIANFAN-151             
1 69110U 26108G   26156.50756699  .00000339  00000+0  15589-3 0  9996
2 69110  89.0122  23.5130 0015751 151.9650 208.2392 14.18800490  2699
QIANFAN-152             
1 69111U 26108H   26156.64441765  .00000328  00000+0  14918-3 0  9990
2 69111  89.0121  23.4964 0014986 151.4510 208.7504 14.19417884  2717
QIANFAN-153             
1 69112U 26108J   26156.63953348  .00000325  00000+0  14695-3 0  9994
2 69112  89.0118  23.4954 0016187 151.4298 208.7783 14.19641072  2718
